{"type": "FeatureCollection", "features": [ {"type": "Feature", "properties": {"norad_id": 35744, "name": "IRIDIUM 33 DEB", "group": "iridium-33-debris", "lat": -73.0428048403863, "lon": -51.01296672167602, "alt_km": 674.1616358246883, "timestamp": "2025-12-22T05:49:03.886810+00:00", "meta": {"OBJECT_NAME": "IRIDIUM 33 DEB", "OBJECT_ID": "1997-051RX", "EPOCH": "2025-12-21T04:01:56.395776", "MEAN_MOTION": 14.7109357, "ECCENTRICITY": 0.00214028, "INCLINATION": 86.3292, "RA_OF_ASC_NODE": 321.6267, "ARG_OF_PERICENTER": 162.5213, "MEAN_ANOMALY": 197.6745, "EPHEMERIS_TYPE": 0, "CLASSIFICATION_TYPE": "U", "NORAD_CAT_ID": 35744, "ELEMENT_SET_NO": 999, "REV_AT_EPOCH": 87455, "BSTAR": 0.00069742889, "MEAN_MOTION_DOT": 4.325e-05, "MEAN_MOTION_DDOT": 0}, "tle": {"line1": "1 35744U 97051RX  25355.16801384  .00004325  00000+0  69743-3 0  9991", "line2": "2 35744  86.3292 321.6267 0021402 162.5213 197.6745 14.71093570874556"}}, "geometry": {"type": "Point", "coordinates": [-51.01296672167602, -73.0428048403863]}}, {"type": "Feature", "properties": {"norad_id": 35797, "name": "IRIDIUM 33 DEB", "group": "iridium-33-debris", "lat": 57.91499307191585, "lon": -28.52738054747331, "alt_km": 609.2242861796676, "timestamp": "2025-12-22T05:49:03.886820+00:00", "meta": {"OBJECT_NAME": "IRIDIUM 33 DEB", "OBJECT_ID": "1997-051SF", "EPOCH": "2025-12-20T04:58:23.124576", "MEAN_MOTION": 14.82943756, "ECCENTRICITY": 0.00144438, "INCLINATION": 86.3358, "RA_OF_ASC_NODE": 326.5409, "ARG_OF_PERICENTER": 124.2299, "MEAN_ANOMALY": 236.0295, "EPHEMERIS_TYPE": 0, "CLASSIFICATION_TYPE": "U", "NORAD_CAT_ID": 35797, "ELEMENT_SET_NO": 999, "REV_AT_EPOCH": 87451, "BSTAR": 0.0011307637, "MEAN_MOTION_DOT": 9.219e-05, "MEAN_MOTION_DDOT": 0}, "tle": {"line1": "1 35797U 97051SF  25354.20721209  .00009219  00000+0  11308-2 0  9990", "line2": "2 35797  86.3358 326.5409 0014443 124.2299 236.0295 14.82943756874511"}}, "geometry": {"type": "Point", "coordinates": [-28.52738054747331, 57.91499307191585]}}, {"type": "Feature", "properties": {"norad_id": 35806, "name": "IRIDIUM 33 DEB", "group": "iridium-33-debris", "lat": -33.35538102355501, "lon": -161.14286515342712, "alt_km": 718.8044204629423, "timestamp": "2025-12-22T05:49:03.886833+00:00", "meta": {"OBJECT_NAME": "IRIDIUM 33 DEB", "OBJECT_ID": "1997-051SQ", "EPOCH": "2025-12-16T08:46:37.248096", "MEAN_MOTION": 14.57379748, "ECCENTRICITY": 0.00158634, "INCLINATION": 86.3444, "RA_OF_ASC_NODE": 19.032, "ARG_OF_PERICENTER": 64.1996, "MEAN_ANOMALY": 296.0847, "EPHEMERIS_TYPE": 0, "CLASSIFICATION_TYPE": "U", "NORAD_CAT_ID": 35806, "ELEMENT_SET_NO": 999, "REV_AT_EPOCH": 86377, "BSTAR": 0.00073764812, "MEAN_MOTION_DOT": 3.369e-05, "MEAN_MOTION_DDOT": 0}, "tle": {"line1": "1 35806U 97051SQ  25350.36570889  .00003369  00000+0  73765-3 0  9996", "line2": "2 35806  86.3444  19.0320 0015863  64.1996 296.0847 14.57379748863778"}}, "geometry": {"type": "Point", "coordinates": [-161.14286515342712, -33.35538102355501]}}, {"type": "Feature", "properties": {"norad_id": 35809, "name": "IRIDIUM 33 DEB", "group": "iridium-33-debris", "lat": 53.189098367724895, "lon": 146.0969339701467, "alt_km": 635.8762470974516, "timestamp": "2025-12-22T05:49:03.886843+00:00", "meta": {"OBJECT_NAME": "IRIDIUM 33 DEB", "OBJECT_ID": "1997-051ST", "EPOCH": "2025-12-21T16:13:39.379872", "MEAN_MOTION": 14.75870585, "ECCENTRICITY": 0.0010266, "INCLINATION": 86.3279, "RA_OF_ASC_NODE": 331.2775, "ARG_OF_PERICENTER": 205.8578, "MEAN_ANOMALY": 154.2129, "EPHEMERIS_TYPE": 0, "CLASSIFICATION_TYPE": "U", "NORAD_CAT_ID": 35809, "ELEMENT_SET_NO": 999, "REV_AT_EPOCH": 86939, "BSTAR": 0.0013722, "MEAN_MOTION_DOT": 9.452e-05, "MEAN_MOTION_DDOT": 0}, "tle": {"line1": "1 35809U 97051ST  25355.67615023  .00009452  00000+0  13722-2 0  9993", "line2": "2 35809  86.3279 331.2775 0010266 205.8578 154.2129 14.75870585869399"}}, "geometry": {"type": "Point", "coordinates": [146.0969339701467, 53.189098367724895]}}, {"type": "Feature", "properties": {"norad_id": 35846, "name": "IRIDIUM 33 DEB", "group": "iridium-33-debris", "lat": -53.71773831953638, "lon": -120.25924268929941, "alt_km": 755.8884288095487, "timestamp": "2025-12-22T05:49:03.886853+00:00", "meta": {"OBJECT_NAME": "IRIDIUM 33 DEB", "OBJECT_ID": "1997-051SW", "EPOCH": "2025-12-20T14:27:58.084704", "MEAN_MOTION": 14.43184351, "ECCENTRICITY": 0.0019529, "INCLINATION": 86.3741, "RA_OF_ASC_NODE": 55.4852, "ARG_OF_PERICENTER": 145.7638, "MEAN_ANOMALY": 214.4826, "EPHEMERIS_TYPE": 0, "CLASSIFICATION_TYPE": "U", "NORAD_CAT_ID": 35846, "ELEMENT_SET_NO": 999, "REV_AT_EPOCH": 71442, "BSTAR": 0.00034499, "MEAN_MOTION_DOT": 1.181e-05, "MEAN_MOTION_DDOT": 0}, "tle": {"line1": "1 35846U 97051SW  25354.60275561  .00001181  00000+0  34499-3 0  9991", "line2": "2 35846  86.3741  55.4852 0019529 145.7638 214.4826 14.43184351714425"}}, "geometry": {"type": "Point", "coordinates": [-120.25924268929941, -53.71773831953638]}}, {"type": "Feature", "properties": {"norad_id": 35848, "name": "IRIDIUM 33 DEB", "group": "iridium-33-debris", "lat": 0.39081738844807945, "lon": -168.17518173505854, "alt_km": 630.4865327606958, "timestamp": "2025-12-22T05:49:03.886864+00:00", "meta": {"OBJECT_NAME": "IRIDIUM 33 DEB", "OBJECT_ID": "1997-051SY", "EPOCH": "2025-12-20T18:54:17.008704", "MEAN_MOTION": 14.78786946, "ECCENTRICITY": 0.00088391, "INCLINATION": 86.3889, "RA_OF_ASC_NODE": 12.5039, "ARG_OF_PERICENTER": 160.7491, "MEAN_ANOMALY": 199.4066, "EPHEMERIS_TYPE": 0, "CLASSIFICATION_TYPE": "U", "NORAD_CAT_ID": 35848, "ELEMENT_SET_NO": 999, "REV_AT_EPOCH": 66809, "BSTAR": 0.00088484231, "MEAN_MOTION_DOT": 6.531e-05, "MEAN_MOTION_DDOT": 0}, "tle": {"line1": "1 35848U 97051SY  25354.78769686  .00006531  00000+0  88484-3 0  9995", "line2": "2 35848  86.3889  12.5039 0008839 160.7491 199.4066 14.78786946668092"}}, "geometry": {"type": "Point", "coordinates": [-168.17518173505854, 0.39081738844807945]}}, {"type": "Feature", "properties": {"norad_id": 35850, "name": "IRIDIUM 33 DEB", "group": "iridium-33-debris", "lat": 28.635179149497827, "lon": 157.92558055256217, "alt_km": 624.3638776337157, "timestamp": "2025-12-22T05:49:03.886874+00:00", "meta": {"OBJECT_NAME": "IRIDIUM 33 DEB", "OBJECT_ID": "1997-051TA", "EPOCH": "2025-12-17T06:35:50.424288", "MEAN_MOTION": 14.78922738, "ECCENTRICITY": 0.00098245, "INCLINATION": 86.3492, "RA_OF_ASC_NODE": 342.1832, "ARG_OF_PERICENTER": 168.4252, "MEAN_ANOMALY": 191.7196, "EPHEMERIS_TYPE": 0, "CLASSIFICATION_TYPE": "U", "NORAD_CAT_ID": 35850, "ELEMENT_SET_NO": 999, "REV_AT_EPOCH": 71424, "BSTAR": 0.0012101447, "MEAN_MOTION_DOT": 8.956e-05, "MEAN_MOTION_DDOT": 0}, "tle": {"line1": "1 35850U 97051TA  25351.27488917  .00008956  00000+0  12101-2 0  9999", "line2": "2 35850  86.3492 342.1832 0009824 168.4252 191.7196 14.78922738714242"}}, "geometry": {"type": "Point", "coordinates": [157.92558055256217, 28.635179149497827]}}, {"type": "Feature", "properties": {"norad_id": 35915, "name": "IRIDIUM 33 DEB", "group": "iridium-33-debris", "lat": 23.01605432450017, "lon": 157.0573865236926, "alt_km": 617.6391947283573, "timestamp": "2025-12-22T05:49:03.886884+00:00", "meta": {"OBJECT_NAME": "IRIDIUM 33 DEB", "OBJECT_ID": "1997-051TY", "EPOCH": "2025-12-21T06:24:31.855104", "MEAN_MOTION": 14.80926982, "ECCENTRICITY": 0.0012051, "INCLINATION": 86.3439, "RA_OF_ASC_NODE": 339.0596, "ARG_OF_PERICENTER": 155.4258, "MEAN_ANOMALY": 204.754, "EPHEMERIS_TYPE": 0, "CLASSIFICATION_TYPE": "U", "NORAD_CAT_ID": 35915, "ELEMENT_SET_NO": 999, "REV_AT_EPOCH": 8212, "BSTAR": 0.0012339, "MEAN_MOTION_DOT": 9.58e-05, "MEAN_MOTION_DDOT": 0}, "tle": {"line1": "1 35915U 97051TY  25355.26703536  .00009580  00000+0  12339-2 0  9998", "line2": "2 35915  86.3439 339.0596 0012051 155.4258 204.7540 14.80926982 82126"}}, "geometry": {"type": "Point", "coordinates": [157.0573865236926, 23.01605432450017]}}, {"type": "Feature", "properties": {"norad_id": 35918, "name": "IRIDIUM 33 DEB", "group": "iridium-33-debris", "lat": 21.24056754181786, "lon": 73.13938084220086, "alt_km": 730.607149106474, "timestamp": "2025-12-22T05:49:03.886894+00:00", "meta": {"OBJECT_NAME": "IRIDIUM 33 DEB", "OBJECT_ID": "1997-051UB", "EPOCH": "2025-12-21T11:36:19.258272", "MEAN_MOTION": 14.51310312, "ECCENTRICITY": 0.00282932, "INCLINATION": 86.4008, "RA_OF_ASC_NODE": 72.0632, "ARG_OF_PERICENTER": 141.628, "MEAN_ANOMALY": 237.8155, "EPHEMERIS_TYPE": 0, "CLASSIFICATION_TYPE": "U", "NORAD_CAT_ID": 35918, "ELEMENT_SET_NO": 999, "REV_AT_EPOCH": 85334, "BSTAR": 0.00077199623, "MEAN_MOTION_DOT": 3.108e-05, "MEAN_MOTION_DDOT": 0}, "tle": {"line1": "1 35918U 97051UB  25355.48355623  .00003108  00000+0  77200-3 0  9994", "line2": "2 35918  86.4008  72.0632 0028293 141.6280 237.8155 14.51310312853345"}}, "geometry": {"type": "Point", "coordinates": [73.13938084220086, 21.24056754181786]}}, {"type": "Feature", "properties": {"norad_id": 35929, "name": "IRIDIUM 33 DEB", "group": "iridium-33-debris", "lat": 86.33035021873857, "lon": 37.23750466305772, "alt_km": 548.9969643715549, "timestamp": "2025-12-22T05:49:03.886904+00:00", "meta": {"OBJECT_NAME": "IRIDIUM 33 DEB", "OBJECT_ID": "1997-051UN", "EPOCH": "2025-12-19T03:54:47.819808", "MEAN_MOTION": 15.02824577, "ECCENTRICITY": 0.00169983, "INCLINATION": 86.3333, "RA_OF_ASC_NODE": 309.5832, "ARG_OF_PERICENTER": 16.9141, "MEAN_ANOMALY": 343.2656, "EPHEMERIS_TYPE": 0, "CLASSIFICATION_TYPE": "U", "NORAD_CAT_ID": 35929, "ELEMENT_SET_NO": 999, "REV_AT_EPOCH": 87876, "BSTAR": 0.0020745591, "MEAN_MOTION_DOT": 0.00027961, "MEAN_MOTION_DDOT": 0}, "tle": {"line1": "1 35929U 97051UN  25353.16305347  .00027961  00000+0  20746-2 0  9992", "line2": "2 35929  86.3333 309.5832 0016998  16.9141 343.2656 15.02824577878767"}}, "geometry": {"type": "Point", "coordinates": [37.23750466305772, 86.33035021873857]}}]}